EUTELSAT 7A             
1 28187U 04008A   25329.41260190  .00000122  00000+0  00000+0 0  9995
2 28187   5.3112  74.4459 0000840 179.6049 179.8900  1.00271848 79305
EUTELSAT 174A           
1 28924U 05052A   25329.37698771  .00000029  00000+0  00000+0 0  9995
2 28924   3.7010  79.0556 0006147 163.6247 131.6345  1.00270068 50289
EUTELSAT HOTBIRD 13B    
1 29270U 06032A   25329.44666213  .00000175  00000+0  00000+0 0  9995
2 29270   1.1327  84.5165 0003374 158.5701  15.5061  1.00275613 45269
EUTELSAT HOTBIRD 13C    
1 33459U 08065A   25329.43340205 -.00000233  00000+0  00000+0 0  9992
2 33459   2.4238  81.6082 0000796 144.4553 320.9728  1.00052376 45305
EUTELSAT 36B            
1 36101U 09065A   25329.16482288  .00000132  00000+0  00000+0 0  9995
2 36101   0.0424   4.8165 0005967 238.5435 290.8537  1.00270999 58660
EUTELSAT KA-SAT 9A      
1 37258U 10069A   25329.37057081  .00000081  00000+0  00000+0 0  9990
2 37258   0.0550 325.1115 0001985 223.9639  17.9298  1.00271258 41964
EUTELSAT 7 WEST A       
1 37816U 11051A   25329.35183588 -.00000041  00000+0  00000+0 0  9999
2 37816   0.0635 346.2875 0006104 230.9452 326.6965  1.00269168 51839
EUTELSAT 16A            
1 37836U 11057A   25329.25947691  .00000123  00000+0  00000+0 0  9999
2 37836   0.0615   3.9759 0005997 247.3851 282.5109  1.00270553  5289
